132P/Helin-Roman-Alu,e,5.3763,173.9665,216.5239,3.893118,0.1283092,0.56374273,193.5392,12/30.0/2025,2000,g 11.0,6.0
# From MPEC 2025-W75
134P/Kowal-Vavrova,e,4.3316,202.0199,18.5818,6.276504,0.0626798,0.58564443,267.8834,12/30.0/2025,2000,g 11.5,4.0
# From MPEC 2025-W75
135P/Shoemaker-Levy,e,6.0621,213.0175,22.3305,3.802046,0.1329469,0.29326121,181.4415,12/30.0/2025,2000,g  7.0,8.0
# From MPEC 2025-YF1
136P/Mueller,e,9.4278,137.4081,225.4211,4.188079,0.1149957,0.29338796,41.4141,12/30.0/2025,2000,g 11.0,4.0
# From MPEC 2025-W75
137P/Shoemaker-Levy,e,4.8587,232.9297,141.2014,4.524431,0.1024137,0.57271887,263.4651,12/30.0/2025,2000,g 11.0,4.0
# From MPEC 2025-W75
138P/Shoemaker-Levy,e,10.0984,309.2191,95.7551,3.615975,0.1433395,0.53144463,347.9133,12/30.0/2025,2000,g 15.0,6.0
# From MPEC 2025-W75
139P/Vaisala-Oterma,e,2.3382,242.1313,166.0747,4.512450,0.1028219,0.24818051,301.3789,12/30.0/2025,2000,g  9.5,4.0
# From MPEC 2025-W75
140P/Bowell-Skiff,e,3.6793,343.3582,172.1463,6.414987,0.0606611,0.69493179,232.2861,12/30.0/2025,2000,g 11.5,6.0
# From MPEC 2025-W75
141P/Machholz,e,13.9605,241.7735,153.6472,3.056628,0.1844337,0.73583106,338.9762,12/30.0/2025,2000,g 12.0,12.0
# From MPEC 2015-KD9
141P-A/Machholz,e,13.9425,153.4950,241.9365,3.056909,0.1844083,0.73585169,338.9120,12/30.0/2025,2000,g 12.0,12.0
# From MPC 37026
141P-D/Machholz,e,13.8342,153.2198,242.1852,3.065449,0.1836382,0.73678762,334.3627,12/30.0/2025,2000,g 12.0,12.0
# From MPC186636
141P-H/Machholz,e,14.0166,241.8489,153.6218,3.045657,0.1854311,0.73457904,342.7955,12/30.0/2025,2000,g 18.5,4.0
# From MPEC 2022-SU8
141P-I/Machholz,e,13.9425,153.4503,241.9463,3.047329,0.1852785,0.73507945,340.6152,12/30.0/2025,2000,g 17.5,4.0
# From MPEC 2025-W75
142P/Ge-Wang,e,12.2431,175.9628,174.0395,5.003542,0.0880618,0.49575215,149.2204,12/30.0/2025,2000,g  8.5,6.0
# From MPEC 2025-YF1
143P/Kowal-Mrkos,e,5.3989,242.1121,304.7173,4.759034,0.0949349,0.37871217,325.5639,12/30.0/2025,2000,g 13.5,2.0
# From MPEC 2025-W75
144P/Kushida,e,3.9311,242.9240,216.3800,3.834701,0.1312523,0.63493139,92.4206,12/30.0/2025,2000,g  8.5,8.0
# From MPEC 2025-YF1
145P/Shoemaker-Levy,e,11.2783,26.7667,10.4200,4.129203,0.1174640,0.54235404,356.1313,12/30.0/2025,2000,g 13.5,4.0
# From MPEC 2025-W75
146P/Shoemaker-LINEAR,e,23.1169,53.3298,317.0190,4.022526,0.1221675,0.64759902,62.5039,12/30.0/2025,2000,g 15.0,4.0
# From MPEC 2025-W75
147P/Kushida-Muramatsu,e,2.3112,91.6651,348.6341,4.009296,0.1227727,0.21158685,92.5769,12/30.0/2025,2000,g 14.0,4.0
# From MPEC 2025-W75
148P/Anderson-LINEAR,e,3.6587,89.1949,8.0955,3.620263,0.1430849,0.55038264,185.2173,12/30.0/2025,2000,g 16.0,2.0
# From MPEC 2025-W75
149P/Mueller,e,34.2505,143.7149,30.0911,4.134672,0.1172310,0.32467467,318.8831,12/30.0/2025,2000,g  8.0,8.0
# From MPEC 2025-W75
150P/LONEOS,e,18.5478,272.0547,246.1264,3.872224,0.1293491,0.54934048,85.0309,12/30.0/2025,2000,g 13.5,4.0
# From MPEC 2025-W75
151P/Helin,e,4.7219,143.0577,216.1966,5.767876,0.0711509,0.57224337,265.5615,12/30.0/2025,2000,g 10.0,6.0
# From MPEC 2025-W75
152P/Helin-Lawrence,e,9.8796,91.7764,164.4010,4.486248,0.1037240,0.30651435,150.1652,12/30.0/2025,2000,g 11.5,4.0
# From MPEC 2025-W75
153P/Ikeya-Zhang,e,28.5001,93.8013,34.2070,50.78784,0.0027231,0.99026160,0.0000,03/15.8170/2002,2000,g  7.0,4.0
# From MPEC 2025-W75
154P/Brewington,e,17.6402,342.9948,47.9126,4.793385,0.0939162,0.67616251,53.0503,12/30.0/2025,2000,g  2.5,12.0
# From MPEC 2025-W75
155P/Shoemaker,e,6.4108,97.1568,14.5440,6.572632,0.0584918,0.72773509,130.6698,12/30.0/2025,2000,g 10.0,4.8
# From MPEC 2025-W75
156P/Russell-LINEAR,e,17.2571,35.3261,0.5318,3.462653,0.1529645,0.61473380,285.5683,12/30.0/2025,2000,g 15.5,2.0
# From MPEC 2025-W75
157P/Tritton,e,12.4252,287.4956,155.1951,3.548322,0.1474584,0.55670575,177.9406,12/30.0/2025,2000,g 10.0,4.0
# From MPEC 2022-VC5
157P-B/Tritton,e,12.4266,153.8672,287.2351,3.102765,0.1803353,0.49983578,217.9186,12/30.0/2025,2000,g 15.7,4.0
# From MPEC 2025-W75
158P/Kowal-LINEAR,e,7.4931,124.1805,233.4217,5.727016,0.0719137,0.11513761,84.4765,12/30.0/2025,2000,g  9.0,4.0
# From MPEC 2025-W75
159P/LONEOS,e,23.4776,54.9368,4.7530,5.856120,0.0695487,0.38229928,192.9765,12/30.0/2025,2000,g 10.0,4.0
# From MPEC 2025-W75
160P/LINEAR,e,15.5891,333.3154,12.7888,3.780462,0.1340870,0.52489237,297.8866,12/30.0/2025,2000,g 15.5,2.0
# From MPEC 2025-W75
161P/Hartley-IRAS,e,95.7884,1.4802,47.0765,7.719085,0.0459574,0.83611157,344.7181,12/30.0/2025,2000,g  8.5,6.0
# From MPEC 2025-W75
162P/SidingSpring,e,27.5519,30.8693,357.2473,3.091438,0.1813273,0.58287098,334.8242,12/30.0/2025,2000,g 12.0,4.0
# From MPEC 2025-W75
163P/NEAT,e,12.7244,102.0683,349.6715,3.759983,0.1351840,0.45347223,315.5259,12/30.0/2025,2000,g 14.5,4.0
# From MPEC 2025-YF1
164P/Christensen,e,16.2760,88.2663,325.9225,3.652000,0.1412238,0.54142350,30.5949,12/30.0/2025,2000,g 11.0,4.0
# From MPEC 2025-W75
165P/LINEAR,e,15.9131,0.6217,125.9529,17.81574,0.0131069,0.61950720,122.2102,12/30.0/2025,2000,g 11.5,2.0
# From MPEC 2025-W75
166P/NEAT,e,15.3856,64.3382,321.9906,13.85032,0.0191212,0.38207303,164.6862,12/30.0/2025,2000,g  5.5,4.0
# From MPEC 2025-W75
167P/CINEOS,e,19.0725,295.8441,344.3039,16.24456,0.0150537,0.26791529,136.2624,12/30.0/2025,2000,g  9.5,2.0
# From MPEC 2025-W75
168P/Hergenrother,e,21.5946,355.3795,15.1059,3.586020,0.1451393,0.62109403,338.6199,12/30.0/2025,2000,g 15.5,4.0
# From MPEC 2025-W75
169P/NEAT,e,11.2851,176.0422,218.1334,2.603672,0.2345982,0.76794561,297.7430,12/30.0/2025,2000,g 16.0,2.0
# From MPEC 2025-W75
170P/Christensen,e,10.1348,142.6357,224.5786,4.190831,0.1148825,0.30547143,113.7221,12/30.0/2025,2000,g 12.0,4.0
# From MPEC 2025-WD0
171P/Spahr,e,21.9549,101.6939,347.0641,3.553203,0.1471547,0.50288332,14.1252,12/30.0/2025,2000,g 13.5,4.0
# From MPEC 2025-W75
172P/Yeung,e,11.2217,30.8798,208.8694,4.224767,0.1135011,0.20511929,6.5423,12/30.0/2025,2000,g 13.0,4.0
# From MPEC 2025-W75
173P/Mueller,e,16.4938,100.3452,29.3497,5.716996,0.0721028,0.26244737,106.1723,12/30.0/2025,2000,g  7.5,4.0
# From MPEC 2025-YF1
175P/Hergenrother,e,4.9296,109.7960,74.5788,3.691178,0.1389814,0.37500191,325.6573,12/30.0/2025,2000,g 14.0,4.0
# From MPEC 2025-W75
177P/Barnard,e,30.9621,271.5964,61.0413,24.49911,0.0081279,0.95405129,57.4226,12/30.0/2025,2000,g 15.0,4.0
# From MPEC 2025-W75
178P/Hug-Bell,e,11.0928,102.7838,297.9661,3.632678,0.1423520,0.48215094,283.3402,12/30.0/2025,2000,g 13.5,4.0
# From MPEC 2025-W75
179P/Jedicke,e,19.8892,115.5050,297.2491,5.937880,0.0681172,0.30515331,89.1205,12/30.0/2025,2000,g  2.5,8.0
# From MPEC 2025-W75
180P/NEAT,e,16.8609,84.5545,94.5951,3.867361,0.1295931,0.35402497,116.8546,12/30.0/2025,2000,g 11.0,4.0
# From MPEC 2025-W75
181P/Shoemaker-Levy,e,17.4712,35.4258,336.3064,3.879722,0.1289743,0.69953729,187.2843,12/30.0/2025,2000,g 11.5,4.0
# From MPEC 2025-W75
182P/LONEOS,e,16.2298,72.4431,54.2316,2.948316,0.1946897,0.66405442,258.3013,12/30.0/2025,2000,g 18.0,4.0
# From MPEC 2025-W75
183P/Korlevic-Juric,e,18.7186,3.3486,161.8702,4.717486,0.0961918,0.10321356,300.6626,12/30.0/2025,2000,g 12.5,2.0
# From MPEC 2025-W75
184P/Lovas,e,4.5687,173.2252,186.5866,3.801588,0.1329709,0.54956337,251.6317,12/30.0/2025,2000,g 13.5,4.0
# From MPEC 2025-W75
185P/Petriew,e,14.0055,214.1246,181.9242,3.100102,0.1805677,0.69921526,162.7514,12/30.0/2025,2000,g 15.0,4.0
# From MPEC 2025-W75
186P/Garradd,e,28.7070,325.7427,267.8884,4.863283,0.0918988,0.12310959,237.9090,12/30.0/2025,2000,g  7.5,4.0
# From MPEC 2025-W75
187P/LINEAR,e,13.6694,109.8487,132.0329,4.545580,0.1016998,0.15663392,281.8893,12/30.0/2025,2000,g  9.0,4.0
# From MPEC 2025-XC7
188P/LINEAR-Mueller,e,10.5258,358.9106,26.8495,4.363540,0.1081299,0.41651053,348.7193,12/30.0/2025,2000,g 11.5,4.0
# From MPEC 2025-W75
189P/NEAT,e,20.1207,281.6797,16.2177,2.937613,0.1957547,0.59169727,238.3323,12/30.0/2025,2000,g 19.0,4.0
# From MPEC 2025-W75
190P/Mueller,e,2.1771,335.4151,50.5189,4.230289,0.1132789,0.52316281,42.0138,12/30.0/2025,2000,g 13.0,4.0
# From MPEC 2025-W75
191P/McNaught,e,8.8396,98.1781,284.2586,3.641461,0.1418374,0.38489388,247.6806,12/30.0/2025,2000,g 13.0,4.0
# From MPEC 2025-W75
192P/Shoemaker-Levy,e,24.5762,51.5319,313.0206,6.444998,0.0602379,0.77326862,35.2139,12/30.0/2025,2000,g 15.0,4.0
# From MPEC 2025-W75
193P/LINEAR-NEAT,e,10.6776,335.1822,8.0938,3.580198,0.1454934,0.39244741,231.3218,12/30.0/2025,2000,g 14.0,4.0
# From MPEC 2025-W75
194P/LINEAR,e,11.8031,349.4957,128.6549,4.123821,0.1176940,0.56340804,81.7517,12/30.0/2025,2000,g 16.0,4.0
# From MPEC 2025-YF1
195P/Hill,e,36.4150,243.0884,250.6632,6.440114,0.0603064,0.31046973,8.8008,12/30.0/2025,2000,g  8.5,4.0
# From MPEC 2025-W75
196P/Tichy,e,19.2904,24.1256,12.1487,3.807025,0.1326861,0.42726222,153.6614,12/30.0/2025,2000,g 13.5,4.0
# From MPEC 2025-W75
197P/LINEAR,e,25.1867,66.1104,189.9973,2.911444,0.1983999,0.61728045,222.6992,12/30.0/2025,2000,g 16.5,2.0
# From MPEC 2025-WD0
198P/ODAS,e,1.3393,358.3272,69.2850,3.631551,0.1424183,0.44792415,5.5349,12/30.0/2025,2000,g 12.5,4.0
# From MPEC 2025-W75
199P/Shoemaker,e,24.9399,92.3418,191.7396,5.871054,0.0692835,0.50419271,60.6857,12/30.0/2025,2000,g 10.0,4.0
# From MPEC 2025-W75
200P/Larsen,e,12.0962,234.7316,134.4470,4.954812,0.0893642,0.33077311,209.7875,12/30.0/2025,2000,g  9.0,4.0
# From MPEC 2025-W75
201P/LONEOS,e,5.7334,19.6765,41.6568,3.354482,0.1604227,0.63742239,268.9936,12/30.0/2025,2000,g 14.0,4.0
# From MPEC 2025-W75
202P/Scotti,e,2.1417,177.3000,274.5276,4.099435,0.1187457,0.25096845,70.2532,12/30.0/2025,2000,g 13.5,4.0
# From MPEC 2025-W75
203P/Korlevic,e,2.9762,290.2202,154.9705,4.668403,0.0977128,0.31634348,207.4295,12/30.0/2025,2000,g 14.5,2.0
# From MPEC 2025-W75
204P/LINEAR-NEAT,e,6.5984,108.4721,356.7466,3.584381,0.1452389,0.48829873,165.3553,12/30.0/2025,2000,g 14.0,4.0
# From MPEC 2025-W75
205P/Giacobini,e,15.2997,179.6245,154.1350,3.543374,0.1477674,0.56715342,213.9563,12/30.0/2025,2000,g 13.0,4.0
# From MPEC 2025-WD0
